{
    "links": {
        "self": "http://www.neowsapp.com/rest/v1/neo/3648768?api_key=iIulBulltgU6a56xZRHN4H3l9WmuAYTsLGpBGhQ2"
    },
    "id": "3648768",
    "neo_reference_id": "3648768",
    "name": "(2013 TJ4)",
    "designation": "2013 TJ4",
    "nasa_jpl_url": "http://ssd.jpl.nasa.gov/sbdb.cgi?sstr=3648768",
    "absolute_magnitude_h": 22.4,
    "estimated_diameter": {
        "kilometers": {
            "estimated_diameter_min": 0.0880146521,
            "estimated_diameter_max": 0.1968067451
        },
        "meters": {
            "estimated_diameter_min": 88.0146520901,
            "estimated_diameter_max": 196.8067450894
        },
        "miles": {
            "estimated_diameter_min": 0.0546897524,
            "estimated_diameter_max": 0.122290004
        },
        "feet": {
            "estimated_diameter_min": 288.7619911632,
            "estimated_diameter_max": 645.6914415591
        }
    },
    "is_potentially_hazardous_asteroid": false,
    "close_approach_data": [
        {
            "close_approach_date": "2011-10-05",
            "close_approach_date_full": "2011-Oct-05 02:58",
            "epoch_date_close_approach": 1317783480000,
            "relative_velocity": {
                "kilometers_per_second": "10.8713719623",
                "kilometers_per_hour": "39136.9390643477",
                "miles_per_hour": "24318.1719425109"
            },
            "miss_distance": {
                "astronomical": "0.4445803001",
                "lunar": "172.9417367389",
                "kilometers": "66508265.938920787",
                "miles": "41326320.1275173806"
            },
            "orbiting_body": "Earth"
        },
        {
            "close_approach_date": "2013-10-20",
            "close_approach_date_full": "2013-Oct-20 03:19",
            "epoch_date_close_approach": 1382239140000,
            "relative_velocity": {
                "kilometers_per_second": "11.1007592604",
                "kilometers_per_hour": "39962.7333375962",
                "miles_per_hour": "24831.2883896858"
            },
            "miss_distance": {
                "astronomical": "0.2730736161",
                "lunar": "106.2256366629",
                "kilometers": "40851231.321757707",
                "miles": "25383778.0819100766"
            },
            "orbiting_body": "Earth"
        },
        {
            "close_approach_date": "2015-10-28",
            "close_approach_date_full": "2015-Oct-28 20:04",
            "epoch_date_close_approach": 1446062640000,
            "relative_velocity": {
                "kilometers_per_second": "13.7761036953",
                "kilometers_per_hour": "49593.9733029403",
                "miles_per_hour": "30815.7663559298"
            },
            "miss_distance": {
                "astronomical": "0.3840791492",
                "lunar": "149.4067890388",
                "kilometers": "57457422.631732204",
                "miles": "35702386.8816802552"
            },
            "orbiting_body": "Earth"
        },
        {
            "close_approach_date": "2016-02-05",
            "close_approach_date_full": "2016-Feb-05 04:54",
            "epoch_date_close_approach": 1454648040000,
            "relative_velocity": {
                "kilometers_per_second": "7.8308529286",
                "kilometers_per_hour": "28191.0705429391",
                "miles_per_hour": "17516.8349159724"
            },
            "miss_distance": {
                "astronomical": "0.4541472216",
                "lunar": "176.6632692024",
                "kilometers": "67939457.017777992",
                "miles": "42215621.0264886096"
            },
            "orbiting_body": "Earth"
        }
    ],
    "orbital_data": {
        "orbit_id": "10",
        "orbit_determination_date": "2017-04-06 08:44:24",
        "first_observation_date": "2013-10-02",
        "last_observation_date": "2013-11-01",
        "data_arc_in_days": 30,
        "observations_used": 29,
        "orbit_uncertainty": "7",
        "minimum_orbit_intersection": ".267387",
        "jupiter_tisserand_invariant": "4.329",
        "epoch_osculation": "2459000.5",
        "eccentricity": ".2589721579363702",
        "semi_major_axis": "1.555667211621614",
        "inclination": "21.32062535831916",
        "ascending_node_longitude": "192.9527187112292",
        "orbital_period": "708.7180183088572",
        "perihelion_distance": "1.152792716797109",
        "perihelion_argument": "244.3079920039861",
        "aphelion_distance": "1.958541706446119",
        "perihelion_time": "2458773.549891275440",
        "mean_anomaly": "115.2814476705405",
        "mean_motion": ".5079594291380258",
        "equinox": "J2000",
        "orbit_class": {
            "orbit_class_type": "AMO",
            "orbit_class_description": "Near-Earth asteroid orbits similar to that of 1221 Amor",
            "orbit_class_range": "1.017 AU < q (perihelion) < 1.3 AU"
        }
    },
    "is_sentry_object": false
}